start=new Date('2023-03-18T00:00:00.000Z').valueOf();
sats=[{"PERIAPSIS":"538.982","ARG_OF_PERICENTER":"84.3088","RA_OF_ASC_NODE":"282.5268","EPOCH":"2023-03-17T20:56:15.321984","SEMIMAJOR_AXIS":"6917.848","ELEMENT_SET_NO":"999","OBJECT_NAME":"STARLINK-3685","DECAY_DATE":null,"EPHEMERIS_TYPE":"0","COUNTRY_CODE":"US","REV_AT_EPOCH":"5656","OBJECT_ID":"2022-029AD","SITE":"AFETR","TLE_LINE1":"1 52115U 22029AD  23076.87239956  .00014284  00000-0  91345-3 0  9990","RCS_SIZE":"LARGE","MEAN_ANOMALY":"275.8024","APOAPSIS":"540.444","REF_FRAME":"TEME","MEAN_MOTION_DOT":"0.00014284","MEAN_ELEMENT_THEORY":"SGP4","MEAN_MOTION_DDOT":"0.0000000000000","TLE_LINE2":"2 52115  53.2133 282.5268 0001056  84.3088 275.8024 15.08850596 56566","NORAD_CAT_ID":"52115","INCLINATION":"53.2133","BSTAR":"0.00091345000000","CENTER_NAME":"EARTH","ECCENTRICITY":"0.00010560","PERIOD":"95.437","CLASSIFICATION_TYPE":"U","MEAN_MOTION":"15.08850596","TIME_SYSTEM":"UTC","GP_ID":"228357009","LAUNCH_DATE":"2022-03-19","OBJECT_TYPE":"PAYLOAD","FILE":"3863544"},{"ECCENTRICITY":"0.00012470","PERIOD":"95.438","CENTER_NAME":"EARTH","BSTAR":"0.00041891000000","LAUNCH_DATE":"2022-03-19","GP_ID":"228356258","TIME_SYSTEM":"UTC","CLASSIFICATION_TYPE":"U","MEAN_MOTION":"15.08838030","OBJECT_TYPE":"PAYLOAD","FILE":"3863544","RCS_SIZE":"LARGE","APOAPSIS":"540.614","MEAN_ANOMALY":"282.5563","MEAN_MOTION_DDOT":"0.0000000000000","MEAN_ELEMENT_THEORY":"SGP4","MEAN_MOTION_DOT":"0.00006385","REF_FRAME":"TEME","INCLINATION":"53.2111","TLE_LINE2":"2 52116  53.2111 282.4768 0001247  77.5569 282.5563 15.08838030 56569","NORAD_CAT_ID":"52116","DECAY_DATE":null,"EPHEMERIS_TYPE":"0","COUNTRY_CODE":"US","OBJECT_NAME":"STARLINK-3735","OBJECT_ID":"2022-029AE","REV_AT_EPOCH":"5656","TLE_LINE1":"1 52116U 22029AE  23076.88343772  .00006385  00000-0  41891-3 0  9998","SITE":"AFETR","PERIAPSIS":"538.889","RA_OF_ASC_NODE":"282.4768","ARG_OF_PERICENTER":"77.5569","EPOCH":"2023-03-17T21:12:09.019008","ELEMENT_SET_NO":"999","SEMIMAJOR_AXIS":"6917.886"},{"MEAN_MOTION":"15.08839276","CLASSIFICATION_TYPE":"U","TIME_SYSTEM":"UTC","LAUNCH_DATE":"2022-03-19","GP_ID":"228356009","BSTAR":"0.00030522000000","ECCENTRICITY":"0.00012190","PERIOD":"95.438","CENTER_NAME":"EARTH","FILE":"3863544","OBJECT_TYPE":"PAYLOAD","MEAN_ANOMALY":"278.2092","APOAPSIS":"540.591","RCS_SIZE":"LARGE","TLE_LINE2":"2 52117  53.2149 282.5580 0001219  81.9038 278.2092 15.08839276 56576","NORAD_CAT_ID":"52117","INCLINATION":"53.2149","MEAN_MOTION_DOT":"0.00004573","REF_FRAME":"TEME","MEAN_ELEMENT_THEORY":"SGP4","MEAN_MOTION_DDOT":"0.0000000000000","OBJECT_NAME":"STARLINK-3738","DECAY_DATE":null,"COUNTRY_CODE":"US","EPHEMERIS_TYPE":"0","SITE":"AFETR","TLE_LINE1":"1 52117U 22029AF  23076.86503705  .00004573  00000-0  30522-3 0  9997","OBJECT_ID":"2022-029AF","REV_AT_EPOCH":"5657","RA_OF_ASC_NODE":"282.5580","ARG_OF_PERICENTER":"81.9038","PERIAPSIS":"538.904","SEMIMAJOR_AXIS":"6917.883","ELEMENT_SET_NO":"999","EPOCH":"2023-03-17T20:45:39.201120"},{"REF_FRAME":"TEME","MEAN_MOTION_DOT":"0.00010297","MEAN_MOTION_DDOT":"0.0000000000000","MEAN_ELEMENT_THEORY":"SGP4","TLE_LINE2":"2 52118  53.2146 282.5086 0001238  74.0956 286.0173 15.08849452 56561","NORAD_CAT_ID":"52118","INCLINATION":"53.2146","RCS_SIZE":"LARGE","MEAN_ANOMALY":"286.0173","APOAPSIS":"540.573","OBJECT_TYPE":"PAYLOAD","FILE":"3863544","BSTAR":"0.00066392000000","CENTER_NAME":"EARTH","ECCENTRICITY":"0.00012380","PERIOD":"95.437","CLASSIFICATION_TYPE":"U","TIME_SYSTEM":"UTC","MEAN_MOTION":"15.08849452","LAUNCH_DATE":"2022-03-19","GP_ID":"228357259","EPOCH":"2023-03-17T21:01:33.207456","SEMIMAJOR_AXIS":"6917.851","ELEMENT_SET_NO":"999","PERIAPSIS":"538.860","ARG_OF_PERICENTER":"74.0956","RA_OF_ASC_NODE":"282.5086","REV_AT_EPOCH":"5656","OBJECT_ID":"2022-029AG","SITE":"AFETR","TLE_LINE1":"1 52118U 22029AG  23076.87607879  .00010297  00000-0  66392-3 0  9990","OBJECT_NAME":"STARLINK-3743","COUNTRY_CODE":"US","DECAY_DATE":null,"EPHEMERIS_TYPE":"0"},{"PERIAPSIS":"538.902","ARG_OF_PERICENTER":"90.6139","RA_OF_ASC_NODE":"282.5919","EPOCH":"2023-03-17T20:35:03.385248","SEMIMAJOR_AXIS":"6917.856","ELEMENT_SET_NO":"999","OBJECT_NAME":"STARLINK-3558","COUNTRY_CODE":"US","DECAY_DATE":null,"EPHEMERIS_TYPE":"0","REV_AT_EPOCH":"5656","OBJECT_ID":"2022-029AH","SITE":"AFETR","TLE_LINE1":"1 52119U 22029AH  23076.85767807  .00009509  00000-0  61460-3 0  9992","RCS_SIZE":"LARGE","MEAN_ANOMALY":"269.4988","APOAPSIS":"540.540","REF_FRAME":"TEME","MEAN_MOTION_DOT":"0.00009509","MEAN_ELEMENT_THEORY":"SGP4","MEAN_MOTION_DDOT":"0.0000000000000","NORAD_CAT_ID":"52119","TLE_LINE2":"2 52119  53.2152 282.5919 0001184  90.6139 269.4988 15.08847996 56561","INCLINATION":"53.2152","BSTAR":"0.00061460000000","CENTER_NAME":"EARTH","ECCENTRICITY":"0.00011840","PERIOD":"95.437","CLASSIFICATION_TYPE":"U","MEAN_MOTION":"15.08847996","TIME_SYSTEM":"UTC","GP_ID":"228357509","LAUNCH_DATE":"2022-03-19","OBJECT_TYPE":"PAYLOAD","FILE":"3863544"},{"SITE":"AFETR","TLE_LINE1":"1 52120U 22029AJ  23076.86871739  .00007589  00000-0  49428-3 0  9991","REV_AT_EPOCH":"5657","OBJECT_ID":"2022-029AJ","OBJECT_NAME":"STARLINK-3534","DECAY_DATE":null,"EPHEMERIS_TYPE":"0","COUNTRY_CODE":"US","SEMIMAJOR_AXIS":"6917.860","ELEMENT_SET_NO":"999","EPOCH":"2023-03-17T20:50:57.182496","ARG_OF_PERICENTER":"90.9518","RA_OF_ASC_NODE":"282.5393","PERIAPSIS":"538.704","FILE":"3863367","OBJECT_TYPE":"PAYLOAD","CLASSIFICATION_TYPE":"U","TIME_SYSTEM":"UTC","MEAN_MOTION":"15.08846580","LAUNCH_DATE":"2022-03-19","GP_ID":"228329455","BSTAR":"0.00049428000000","CENTER_NAME":"EARTH","ECCENTRICITY":"0.00014770","PERIOD":"95.437","TLE_LINE2":"2 52120  53.2144 282.5393 0001477  90.9518 269.1643 15.08846580 56573","NORAD_CAT_ID":"52120","INCLINATION":"53.2144","REF_FRAME":"TEME","MEAN_MOTION_DOT":"0.00007589","MEAN_MOTION_DDOT":"0.0000000000000","MEAN_ELEMENT_THEORY":"SGP4","MEAN_ANOMALY":"269.1643","APOAPSIS":"540.747","RCS_SIZE":"LARGE"},{"INCLINATION":"53.2135","NORAD_CAT_ID":"52121","TLE_LINE2":"2 52121  53.2135 272.6688 0001294  90.6523 269.4617 15.08844768 56694","MEAN_ELEMENT_THEORY":"SGP4","MEAN_MOTION_DDOT":"0.0000000000000","MEAN_MOTION_DOT":"0.00006443","REF_FRAME":"TEME","APOAPSIS":"540.626","MEAN_ANOMALY":"269.4617","RCS_SIZE":"LARGE","FILE":"3863544","OBJECT_TYPE":"PAYLOAD","GP_ID":"228356509","LAUNCH_DATE":"2022-03-19","TIME_SYSTEM":"UTC","CLASSIFICATION_TYPE":"U","MEAN_MOTION":"15.08844768","ECCENTRICITY":"0.00012940","PERIOD":"95.437","CENTER_NAME":"EARTH","BSTAR":"0.00042245000000","ELEMENT_SET_NO":"999","SEMIMAJOR_AXIS":"6917.866","EPOCH":"2023-03-17T20:09:53.036352","RA_OF_ASC_NODE":"272.6688","ARG_OF_PERICENTER":"90.6523","PERIAPSIS":"538.836","TLE_LINE1":"1 52121U 22029AK  23076.84019718  .00006443  00000-0  42245-3 0  9999","SITE":"AFETR","OBJECT_ID":"2022-029AK","REV_AT_EPOCH":"5669","COUNTRY_CODE":"US","DECAY_DATE":null,"EPHEMERIS_TYPE":"0","OBJECT_NAME":"STARLINK-3678"},{"SEMIMAJOR_AXIS":"6917.855","ELEMENT_SET_NO":"999","EPOCH":"2023-03-17T20:40:21.281088","RA_OF_ASC_NODE":"282.5761","ARG_OF_PERICENTER":"78.6019","PERIAPSIS":"538.821","SITE":"AFETR","TLE_LINE1":"1 52122U 22029AL  23076.86135742  .00006416  00000-0  42073-3 0  9997","OBJECT_ID":"2022-029AL","REV_AT_EPOCH":"5656","OBJECT_NAME":"STARLINK-3726","COUNTRY_CODE":"US","DECAY_DATE":null,"EPHEMERIS_TYPE":"0","NORAD_CAT_ID":"52122","TLE_LINE2":"2 52122  53.2150 282.5761 0001299  78.6019 281.5119 15.08848450 56565","INCLINATION":"53.2150","MEAN_MOTION_DOT":"0.00006416","REF_FRAME":"TEME","MEAN_ELEMENT_THEORY":"SGP4","MEAN_MOTION_DDOT":"0.0000000000000","MEAN_ANOMALY":"281.5119","APOAPSIS":"540.618","RCS_SIZE":"LARGE","FILE":"3863372","OBJECT_TYPE":"PAYLOAD","MEAN_MOTION":"15.08848450","CLASSIFICATION_TYPE":"U","TIME_SYSTEM":"UTC","LAUNCH_DATE":"2022-03-19","GP_ID":"228330309","BSTAR":"0.00042073000000","ECCENTRICITY":"0.00012990","PERIOD":"95.437","CENTER_NAME":"EARTH"},{"PERIAPSIS":"538.830","ARG_OF_PERICENTER":"88.4837","RA_OF_ASC_NODE":"272.7025","EPOCH":"2023-03-17T19:59:17.101248","SEMIMAJOR_AXIS":"6917.868","ELEMENT_SET_NO":"999","OBJECT_NAME":"STARLINK-3725","EPHEMERIS_TYPE":"0","DECAY_DATE":null,"COUNTRY_CODE":"US","REV_AT_EPOCH":"5670","OBJECT_ID":"2022-029AM","SITE":"AFETR","TLE_LINE1":"1 52123U 22029AM  23076.83283682  .00009049  00000-0  58585-3 0  9992","RCS_SIZE":"LARGE","MEAN_ANOMALY":"271.6304","APOAPSIS":"540.636","REF_FRAME":"TEME","MEAN_MOTION_DOT":"0.00009049","MEAN_ELEMENT_THEORY":"SGP4","MEAN_MOTION_DDOT":"0.0000000000000","TLE_LINE2":"2 52123  53.2132 272.7025 0001305  88.4837 271.6304 15.08844131 56709","NORAD_CAT_ID":"52123","INCLINATION":"53.2132","BSTAR":"0.00058585000000","CENTER_NAME":"EARTH","ECCENTRICITY":"0.00013050","PERIOD":"95.437","CLASSIFICATION_TYPE":"U","MEAN_MOTION":"15.08844131","TIME_SYSTEM":"UTC","LAUNCH_DATE":"2022-03-19","GP_ID":"228329980","OBJECT_TYPE":"PAYLOAD","FILE":"3863372"},{"OBJECT_NAME":"STARLINK-3684","COUNTRY_CODE":"US","DECAY_DATE":null,"EPHEMERIS_TYPE":"0","SITE":"AFETR","TLE_LINE1":"1 52124U 22029AN  23076.85399441  .00007612  00000-0  49582-3 0  9997","OBJECT_ID":"2022-029AN","REV_AT_EPOCH":"5656","RA_OF_ASC_NODE":"282.6045","ARG_OF_PERICENTER":"84.6786","PERIAPSIS":"538.964","SEMIMAJOR_AXIS":"6917.884","ELEMENT_SET_NO":"999","EPOCH":"2023-03-17T20:29:45.117024","TIME_SYSTEM":"UTC","CLASSIFICATION_TYPE":"U","MEAN_MOTION":"15.08838704","GP_ID":"228356259","LAUNCH_DATE":"2022-03-19","BSTAR":"0.00049582000000","PERIOD":"95.438","ECCENTRICITY":"0.00011350","CENTER_NAME":"EARTH","FILE":"3863544","OBJECT_TYPE":"PAYLOAD","MEAN_ANOMALY":"275.4336","APOAPSIS":"540.535","RCS_SIZE":"LARGE","TLE_LINE2":"2 52124  53.2143 282.6045 0001135  84.6786 275.4336 15.08838704 56566","NORAD_CAT_ID":"52124","INCLINATION":"53.2143","MEAN_MOTION_DOT":"0.00007612","REF_FRAME":"TEME","MEAN_ELEMENT_THEORY":"SGP4","MEAN_MOTION_DDOT":"0.0000000000000"}];
